     2.11           GLONASS NAVIGATION DATA                 RINEX VERSION / TYPE
TTS-4               NOVJ                20180626 23:59:43UTCPGM / RUN BY / DATE 
    18                                                      LEAP SECONDS        
                                                            END OF HEADER       
23 18  6 27  2 45  0.0 1.621870324016E-04 1.818989403546E-12 9.000000000000E+03
   -6.515701171875E+03 9.832096099854E-02 9.313225746155E-10 1.000000000000E+00
   -1.690983496094E+04-2.464450836182E+00 9.313225746155E-10 3.000000000000E+00
    1.794246386719E+04-2.284734725952E+00-1.862645149231E-09 0.000000000000E+00
17 18  6 27  2 45  0.0 1.433370634913E-04 2.728484105319E-12 9.000000000000E+03
   -9.420302734375E+03 3.631782531738E-01-2.793967723846E-09 1.000000000000E+00
    1.672296972656E+04-2.278580665588E+00 2.793967723846E-09 4.000000000000E+00
    1.682203271484E+04 2.466037750244E+00 9.313225746155E-10 0.000000000000E+00
 7 18  6 27  2 45  0.0-4.100892692804E-05 0.000000000000E+00 9.000000000000E+03
    1.074651513672E+04 2.527666091919E+00-9.313225746155E-10 1.000000000000E+00
   -5.568342773438E+03 1.740117073059E+00 0.000000000000E+00 5.000000000000E+00
    2.248922753906E+04-7.814588546753E-01-2.793967723846E-09 0.000000000000E+00
 9 18  6 27  2 15  0.0 2.226512879133E-05-9.094947017729E-13 8.220000000000E+03
    2.461774707031E+04-6.298599243164E-01 9.313225746155E-10 0.000000000000E+00
   -5.130227050781E+03 3.833103179932E-02-2.793967723846E-09-2.000000000000E+00
    4.508131347656E+03 3.485999107361E+00-2.793967723846E-09 0.000000000000E+00
 8 18  6 27  2 45  0.0 2.254638820887E-05 0.000000000000E+00 9.570000000000E+03
   -5.115588867188E+03 2.166869163513E+00 0.000000000000E+00 0.000000000000E+00
   -1.521627441406E+04 1.626025199890E+00 9.313225746155E-10 6.000000000000E+00
    1.988151464844E+04 1.806903839111E+00-1.862645149231E-09 0.000000000000E+00
 9 18  6 27  2 45  0.0 2.226512879133E-05-9.094947017729E-13 9.000000000000E+03
    2.279710302734E+04-1.363937377930E+00 0.000000000000E+00 1.000000000000E+00
   -4.699130371094E+03 4.704761505127E-01-1.862645149231E-09-2.000000000000E+00
    1.052871142578E+04 3.160290718079E+00-2.793967723846E-09 0.000000000000E+00
14 18  6 27  3 15  0.0 2.853292971849E-05 0.000000000000E+00 1.080000000000E+04
   -2.165007568359E+04 9.613132476807E-02-9.313225746155E-10 1.000000000000E+00
    1.346992626953E+04 1.389808654785E-01 3.725290298462E-09-7.000000000000E+00
   -4.855908203125E+01-3.575091362000E+00 1.862645149231E-09 0.000000000000E+00
 6 18  6 27  3 15  0.0 1.350007951260E-04 0.000000000000E+00 1.080000000000E+04
    2.322018115234E+04 9.020681381226E-01-1.862645149231E-09 1.000000000000E+00
    7.947190429688E+03 3.111877441406E-01-9.313225746155E-10-4.000000000000E+00
    6.900460937500E+03-3.394495964050E+00-9.313225746155E-10 0.000000000000E+00
18 18  6 27  3 15  0.0 2.007707953453E-04 9.094947017729E-13 1.080000000000E+04
   -2.685573730469E+03 1.656179428101E-01-2.793967723846E-09 1.000000000000E+00
    2.412645800781E+04-1.067663192749E+00 2.793967723846E-09-3.000000000000E+00
    7.739160156250E+03 3.395019531250E+00 1.862645149231E-09 0.000000000000E+00
16 18  6 27  3 15  0.0 9.573809802532E-05 0.000000000000E+00 1.080000000000E+04
    5.431111328125E+03-2.642434120178E+00-2.793967723846E-09 1.000000000000E+00
    9.546102050781E+03 1.724323272705E+00 1.862645149231E-09-1.000000000000E+00
    2.300102441406E+04-8.195304870605E-02 0.000000000000E+00 0.000000000000E+00
15 18  6 27  3 15  0.0-1.229625195265E-05 0.000000000000E+00 1.080000000000E+04
   -1.432512158203E+04-1.487425804138E+00-1.862645149231E-09 1.000000000000E+00
    1.621868457031E+04 1.125959396362E+00 3.725290298462E-09 0.000000000000E+00
    1.358775146484E+04-2.904684066772E+00 9.313225746155E-10 0.000000000000E+00
24 18  6 27  3 15  0.0-1.681149005890E-04 0.000000000000E+00 1.080000000000E+04
   -1.038364697266E+04-1.584692001343E-01 0.000000000000E+00 1.000000000000E+00
   -6.185342773438E+03-3.079821586609E+00 2.793967723846E-09 2.000000000000E+00
    2.243619824219E+04-9.195318222046E-01-9.313225746155E-10 0.000000000000E+00
17 18  6 27  3 15  0.0 1.433426514268E-04 2.728484105319E-12 1.080000000000E+04
   -9.072571289062E+03-2.330780029297E-03-1.862645149231E-09 1.000000000000E+00
    1.210006347656E+04-2.816035270691E+00 3.725290298462E-09 4.000000000000E+00
    2.055434912109E+04 1.654053688049E+00 0.000000000000E+00 0.000000000000E+00
 7 18  6 27  3 15  0.0-4.100985825062E-05 0.000000000000E+00 1.080000000000E+04
    1.529778710938E+04 2.480709075928E+00-9.313225746155E-10 1.000000000000E+00
   -2.896698730469E+03 1.215515136719E+00 0.000000000000E+00 5.000000000000E+00
    2.023436669922E+04-1.707887649536E+00-1.862645149231E-09 0.000000000000E+00
 8 18  6 27  3 15  0.0 2.254731953144E-05 0.000000000000E+00 1.080000000000E+04
   -7.284580078125E+02 2.675363540649E+00 0.000000000000E+00 1.000000000000E+00
   -1.241651806641E+04 1.446810722351E+00 9.313225746155E-10 6.000000000000E+00
    2.232790820312E+04 8.938646316528E-01-1.862645149231E-09 0.000000000000E+00
 9 18  6 27  3 15  0.0 2.226326614618E-05-9.094947017729E-13 1.080000000000E+04
    1.983685302734E+04-1.883742332458E+00-9.313225746155E-10 1.000000000000E+00
   -3.353636718750E+03 1.039820671082E+00-9.313225746155E-10-2.000000000000E+00
    1.573878662109E+04 2.591222763062E+00-1.862645149231E-09 0.000000000000E+00
19 18  6 27  3 15  0.0-5.545839667320E-05 0.000000000000E+00 1.191000000000E+04
    4.753007324219E+03 2.329254150391E-01-1.862645149231E-09 0.000000000000E+00
    2.309877246094E+04 1.329242706299E+00 9.313225746155E-10 3.000000000000E+00
   -9.724904296875E+03 3.272658348083E+00 1.862645149231E-09 0.000000000000E+00
 6 18  6 27  3 45  0.0 1.350017264485E-04 0.000000000000E+00 1.260000000000E+04
    2.416318164062E+04 1.223821640015E-01-1.862645149231E-09 1.000000000000E+00
    8.107980468750E+03-9.921741485596E-02-9.313225746155E-10-4.000000000000E+00
    6.022055664062E+02-3.558041572571E+00 0.000000000000E+00 0.000000000000E+00
18 18  6 27  3 45  0.0 2.007726579905E-04 9.094947017729E-13 1.260000000000E+04
   -2.624931640625E+03-1.329736709595E-01-2.793967723846E-09 1.000000000000E+00
    2.147434521484E+04-1.850920677185E+00 3.725290298462E-09-3.000000000000E+00
    1.347082910156E+04 2.932079315186E+00 9.313225746155E-10 0.000000000000E+00
16 18  6 27  3 45  0.0 9.573902934790E-05 0.000000000000E+00 1.260000000000E+04
    9.894482421875E+02-2.255827903748E+00-1.862645149231E-09 1.000000000000E+00
    1.292559912109E+04 1.994834899902E+00 3.725290298462E-09-1.000000000000E+00
    2.196495068359E+04-1.061446189880E+00 0.000000000000E+00 0.000000000000E+00
15 18  6 27  3 45  0.0-1.229625195265E-05 0.000000000000E+00 1.260000000000E+04
   -1.629945849609E+04-7.078599929810E-01-9.313225746155E-10 1.000000000000E+00
    1.802802490234E+04 8.401670455933E-01 3.725290298462E-09 0.000000000000E+00
    7.903966308594E+03-3.369799613953E+00 1.862645149231E-09 0.000000000000E+00
24 18  6 27  3 45  0.0-1.681158319116E-04 0.000000000000E+00 1.260000000000E+04
   -1.105057666016E+04-5.614519119263E-01 9.313225746155E-10 1.000000000000E+00
   -1.141476806641E+04-2.683517456055E+00 9.313225746155E-10 2.000000000000E+00
    1.993304492188E+04-1.843562126160E+00-1.862645149231E-09 0.000000000000E+00
19 18  6 27  3 45  0.0-5.545932799578E-05 0.000000000000E+00 1.260000000000E+04
    5.269330078125E+03 2.990436553955E-01-2.793967723846E-09 1.000000000000E+00
    2.470633300781E+04 4.449625015259E-01 1.862645149231E-09 3.000000000000E+00
   -3.534255859375E+03 3.561181068420E+00 1.862645149231E-09 0.000000000000E+00
17 18  6 27  3 45  0.0 1.433482393622E-04 2.728484105319E-12 1.260000000000E+04
   -9.491846679688E+03-4.724254608154E-01-9.313225746155E-10 1.000000000000E+00
    6.754431152344E+03-3.072948455811E+00 3.725290298462E-09 4.000000000000E+00
    2.269960693359E+04 7.140407562256E-01 0.000000000000E+00 0.000000000000E+00
 7 18  6 27  3 45  0.0-4.101078957319E-05 0.000000000000E+00 1.260000000000E+04
    1.950089501953E+04 2.141687393188E+00-1.862645149231E-09 1.000000000000E+00
   -1.205882812500E+03 6.685905456543E-01 0.000000000000E+00 5.000000000000E+00
    1.641944677734E+04-2.503617286682E+00-1.862645149231E-09 0.000000000000E+00
 8 18  6 27  3 45  0.0 2.254825085402E-05 0.000000000000E+00 1.260000000000E+04
    4.374953613281E+03 2.950402259827E+00 0.000000000000E+00 1.000000000000E+00
   -1.012279541016E+04 1.076894760132E+00 0.000000000000E+00 6.000000000000E+00
    2.305834130859E+04-8.748245239258E-02-2.793967723846E-09 0.000000000000E+00
 1 18  6 27  3 45  0.0 2.823863178492E-05 0.000000000000E+00 1.371000000000E+04
   -1.203485058594E+04 2.298709869385E+00 9.313225746155E-10 0.000000000000E+00
   -1.345994531250E+04 8.942403793335E-01 9.313225746155E-10 1.000000000000E+00
    1.801879345703E+04 2.205708503723E+00-1.862645149231E-09 0.000000000000E+00
18 18  6 27  4 15  0.0 2.007754519582E-04 9.094947017729E-13 1.440000000000E+04
   -3.267226562500E+03-6.020393371582E-01-1.862645149231E-09 1.000000000000E+00
    1.759270605469E+04-2.419395446777E+00 4.656612873077E-09-3.000000000000E+00
    1.815822314453E+04 2.242361068726E+00 0.000000000000E+00 0.000000000000E+00
16 18  6 27  4 15  0.0 9.574089199305E-05 9.094947017729E-13 1.440000000000E+04
   -2.583818359375E+03-1.693304061890E+00-1.862645149231E-09 1.000000000000E+00
    1.657958935547E+04 2.020145416260E+00 4.656612873077E-09-1.000000000000E+00
    1.923026269531E+04-1.957100868225E+00 0.000000000000E+00 0.000000000000E+00
15 18  6 27  4 15  0.0-1.229625195265E-05 0.000000000000E+00 1.440000000000E+04
   -1.691316796875E+04 5.964279174805E-03 0.000000000000E+00 1.000000000000E+00
    1.909392822266E+04 3.069086074829E-01 3.725290298462E-09 0.000000000000E+00
    1.612411132812E+03-3.575675964355E+00 1.862645149231E-09 0.000000000000E+00
